start=new Date('2022-12-24T00:00:00.000Z').valueOf();
sats=[{"REV_AT_EPOCH":"9149","MEAN_MOTION_DDOT":"0.0000000000000","MEAN_ELEMENT_THEORY":"SGP4","ARG_OF_PERICENTER":"56.6175","RA_OF_ASC_NODE":"313.7888","CENTER_NAME":"EARTH","TIME_SYSTEM":"UTC","PERIOD":"95.592","BSTAR":"0.00067065000000","ECCENTRICITY":"0.00016610","APOAPSIS":"548.338","MEAN_MOTION":"15.06408403","ELEMENT_SET_NO":"999","GP_ID":"221275772","REF_FRAME":"TEME","NORAD_CAT_ID":"48304","EPHEMERIS_TYPE":"0","DECAY_DATE":null,"INCLINATION":"53.0554","OBJECT_ID":"2021-036AE","SITE":"AFETR","SEMIMAJOR_AXIS":"6925.323","LAUNCH_DATE":"2021-04-29","OBJECT_NAME":"STARLINK-2524","MEAN_ANOMALY":"303.4973","FILE":"3720302","OBJECT_TYPE":"PAYLOAD","PERIAPSIS":"546.038","RCS_SIZE":"LARGE","EPOCH":"2022-12-23T11:57:40.760352","COUNTRY_CODE":"US","TLE_LINE1":"1 48304U 21036AE  22357.49838843  .00009724  00000-0  67065-3 0  9996","MEAN_MOTION_DOT":"0.00009724","TLE_LINE2":"2 48304  53.0554 313.7888 0001661  56.6175 303.4973 15.06408403 91498","CLASSIFICATION_TYPE":"U"},{"BSTAR":"0.00022687000000","PERIOD":"95.592","CENTER_NAME":"EARTH","TIME_SYSTEM":"UTC","RA_OF_ASC_NODE":"314.6976","ARG_OF_PERICENTER":"80.4545","MEAN_MOTION_DDOT":"0.0000000000000","MEAN_ELEMENT_THEORY":"SGP4","REV_AT_EPOCH":"9146","INCLINATION":"53.0534","DECAY_DATE":null,"REF_FRAME":"TEME","NORAD_CAT_ID":"48305","EPHEMERIS_TYPE":"0","GP_ID":"221274529","ELEMENT_SET_NO":"999","MEAN_MOTION":"15.06409854","ECCENTRICITY":"0.00015370","APOAPSIS":"548.248","MEAN_ANOMALY":"279.6618","LAUNCH_DATE":"2021-04-29","OBJECT_NAME":"STARLINK-2519","SEMIMAJOR_AXIS":"6925.318","SITE":"AFETR","OBJECT_ID":"2021-036AF","CLASSIFICATION_TYPE":"U","TLE_LINE2":"2 48305  53.0534 314.6976 0001537  80.4545 279.6618 15.06409854 91461","MEAN_MOTION_DOT":"0.00003100","TLE_LINE1":"1 48305U 21036AF  22357.29471476  .00003100  00000-0  22687-3 0  9993","EPOCH":"2022-12-23T07:04:23.355264","RCS_SIZE":"LARGE","COUNTRY_CODE":"US","OBJECT_TYPE":"PAYLOAD","PERIAPSIS":"546.119","FILE":"3720302"},{"APOAPSIS":"548.468","ECCENTRICITY":"0.00017460","MEAN_MOTION":"15.06385251","ELEMENT_SET_NO":"999","GP_ID":"221305399","EPHEMERIS_TYPE":"0","NORAD_CAT_ID":"48306","REF_FRAME":"TEME","DECAY_DATE":null,"INCLINATION":"53.0583","REV_AT_EPOCH":"9151","MEAN_ELEMENT_THEORY":"SGP4","MEAN_MOTION_DDOT":"0.0000000000000","ARG_OF_PERICENTER":"55.4371","RA_OF_ASC_NODE":"313.2354","CENTER_NAME":"EARTH","TIME_SYSTEM":"UTC","PERIOD":"95.593","BSTAR":"0.00014470000000","FILE":"3720518","OBJECT_TYPE":"PAYLOAD","PERIAPSIS":"546.050","COUNTRY_CODE":"US","RCS_SIZE":"LARGE","EPOCH":"2022-12-23T14:58:08.714208","TLE_LINE1":"1 48306U 21036AG  22357.62371197  .00001874  00000-0  14470-3 0  9997","MEAN_MOTION_DOT":"0.00001874","TLE_LINE2":"2 48306  53.0583 313.2354 0001746  55.4371 304.6783 15.06385251 91514","CLASSIFICATION_TYPE":"U","OBJECT_ID":"2021-036AG","SEMIMAJOR_AXIS":"6925.394","SITE":"AFETR","OBJECT_NAME":"STARLINK-2523","LAUNCH_DATE":"2021-04-29","MEAN_ANOMALY":"304.6783"},{"SITE":"AFETR","SEMIMAJOR_AXIS":"6925.377","OBJECT_ID":"2021-036AH","MEAN_ANOMALY":"297.0749","LAUNCH_DATE":"2021-04-29","OBJECT_NAME":"STARLINK-2528","TLE_LINE1":"1 48307U 21036AH  22357.62002715  .00002305  00000-0  17365-3 0  9991","EPOCH":"2022-12-23T14:52:50.345760","RCS_SIZE":"LARGE","COUNTRY_CODE":"US","OBJECT_TYPE":"PAYLOAD","PERIAPSIS":"546.082","FILE":"3720518","CLASSIFICATION_TYPE":"U","TLE_LINE2":"2 48307  53.0569 313.2545 0001674  63.0411 297.0749 15.06390806 91510","MEAN_MOTION_DOT":"0.00002305","RA_OF_ASC_NODE":"313.2545","ARG_OF_PERICENTER":"63.0411","MEAN_MOTION_DDOT":"0.0000000000000","MEAN_ELEMENT_THEORY":"SGP4","REV_AT_EPOCH":"9151","BSTAR":"0.00017365000000","PERIOD":"95.593","CENTER_NAME":"EARTH","TIME_SYSTEM":"UTC","GP_ID":"221305628","MEAN_MOTION":"15.06390806","ELEMENT_SET_NO":"999","ECCENTRICITY":"0.00016740","APOAPSIS":"548.401","INCLINATION":"53.0569","DECAY_DATE":null,"REF_FRAME":"TEME","NORAD_CAT_ID":"48307","EPHEMERIS_TYPE":"0"},{"SITE":"AFETR","SEMIMAJOR_AXIS":"6925.387","OBJECT_ID":"2021-036AJ","MEAN_ANOMALY":"272.0509","OBJECT_NAME":"STARLINK-2532","LAUNCH_DATE":"2021-04-29","COUNTRY_CODE":"US","RCS_SIZE":"LARGE","EPOCH":"2022-12-23T14:47:32.787744","TLE_LINE1":"1 48308U 21036AJ  22357.61635171  .00000209  00000-0  32957-4 0  9995","FILE":"3720518","PERIAPSIS":"546.097","OBJECT_TYPE":"PAYLOAD","CLASSIFICATION_TYPE":"U","MEAN_MOTION_DOT":"0.00000209","TLE_LINE2":"2 48308  53.0554 313.2656 0001668  88.0671 272.0509 15.06387563 91519","ARG_OF_PERICENTER":"88.0671","RA_OF_ASC_NODE":"313.2656","REV_AT_EPOCH":"9151","MEAN_ELEMENT_THEORY":"SGP4","MEAN_MOTION_DDOT":"0.0000000000000","BSTAR":"0.00003295700000","CENTER_NAME":"EARTH","TIME_SYSTEM":"UTC","PERIOD":"95.593","GP_ID":"221304398","APOAPSIS":"548.407","ECCENTRICITY":"0.00016680","ELEMENT_SET_NO":"999","MEAN_MOTION":"15.06387563","DECAY_DATE":null,"INCLINATION":"53.0554","EPHEMERIS_TYPE":"0","NORAD_CAT_ID":"48308","REF_FRAME":"TEME"},{"OBJECT_ID":"2021-036AK","SITE":"AFETR","SEMIMAJOR_AXIS":"6925.382","LAUNCH_DATE":"2021-04-29","OBJECT_NAME":"STARLINK-2517","MEAN_ANOMALY":"287.7283","FILE":"3720518","OBJECT_TYPE":"PAYLOAD","PERIAPSIS":"546.186","RCS_SIZE":"LARGE","EPOCH":"2022-12-23T21:04:22.948032","COUNTRY_CODE":"US","TLE_LINE1":"1 48309U 21036AK  22357.87804338  .00000661  00000-0  63313-4 0  9999","MEAN_MOTION_DOT":"0.00000661","TLE_LINE2":"2 48309  53.0559 312.0933 0001532  72.3873 287.7283 15.06389143 91552","CLASSIFICATION_TYPE":"U","REV_AT_EPOCH":"9155","MEAN_MOTION_DDOT":"0.0000000000000","MEAN_ELEMENT_THEORY":"SGP4","ARG_OF_PERICENTER":"72.3873","RA_OF_ASC_NODE":"312.0933","CENTER_NAME":"EARTH","TIME_SYSTEM":"UTC","PERIOD":"95.593","BSTAR":"0.00006331300000","ECCENTRICITY":"0.00015320","APOAPSIS":"548.308","MEAN_MOTION":"15.06389143","ELEMENT_SET_NO":"999","GP_ID":"221304648","REF_FRAME":"TEME","EPHEMERIS_TYPE":"0","NORAD_CAT_ID":"48309","DECAY_DATE":null,"INCLINATION":"53.0559"},{"SEMIMAJOR_AXIS":"6925.304","SITE":"AFETR","OBJECT_ID":"2021-036AL","MEAN_ANOMALY":"280.2987","LAUNCH_DATE":"2021-04-29","OBJECT_NAME":"STARLINK-2536","TLE_LINE1":"1 48310U 21036AL  22357.80800469  .00005951  00000-0  41793-3 0  9999","EPOCH":"2022-12-23T19:23:31.605216","RCS_SIZE":"LARGE","COUNTRY_CODE":"US","OBJECT_TYPE":"PAYLOAD","PERIAPSIS":"545.864","FILE":"3720518","CLASSIFICATION_TYPE":"U","TLE_LINE2":"2 48310  53.0518 312.4112 0001884  79.8214 280.2987 15.06414563 91546","MEAN_MOTION_DOT":"0.00005951","RA_OF_ASC_NODE":"312.4112","ARG_OF_PERICENTER":"79.8214","MEAN_MOTION_DDOT":"0.0000000000000","MEAN_ELEMENT_THEORY":"SGP4","REV_AT_EPOCH":"9154","BSTAR":"0.00041793000000","PERIOD":"95.591","TIME_SYSTEM":"UTC","CENTER_NAME":"EARTH","GP_ID":"221305900","ELEMENT_SET_NO":"999","MEAN_MOTION":"15.06414563","ECCENTRICITY":"0.00018840","APOAPSIS":"548.474","INCLINATION":"53.0518","DECAY_DATE":null,"REF_FRAME":"TEME","EPHEMERIS_TYPE":"0","NORAD_CAT_ID":"48310"},{"LAUNCH_DATE":"2021-04-29","OBJECT_NAME":"STARLINK-2534","MEAN_ANOMALY":"304.0956","OBJECT_ID":"2021-036AM","SITE":"AFETR","SEMIMAJOR_AXIS":"6925.362","TLE_LINE2":"2 48311  53.0560 313.0122 0001608  56.0186 304.0956 15.06395768 91525","MEAN_MOTION_DOT":"0.00003836","CLASSIFICATION_TYPE":"U","OBJECT_TYPE":"PAYLOAD","PERIAPSIS":"546.113","FILE":"3720518","TLE_LINE1":"1 48311U 21036AM  22357.67162977  .00003836  00000-0  27628-3 0  9991","RCS_SIZE":"LARGE","EPOCH":"2022-12-23T16:07:08.812128","COUNTRY_CODE":"US","PERIOD":"95.592","TIME_SYSTEM":"UTC","CENTER_NAME":"EARTH","BSTAR":"0.00027628000000","MEAN_MOTION_DDOT":"0.0000000000000","MEAN_ELEMENT_THEORY":"SGP4","REV_AT_EPOCH":"9152","RA_OF_ASC_NODE":"313.0122","ARG_OF_PERICENTER":"56.0186","REF_FRAME":"TEME","NORAD_CAT_ID":"48311","EPHEMERIS_TYPE":"0","INCLINATION":"53.0560","DECAY_DATE":null,"ELEMENT_SET_NO":"999","MEAN_MOTION":"15.06395768","ECCENTRICITY":"0.00016080","APOAPSIS":"548.340","GP_ID":"221306129"},{"PERIOD":"95.592","TIME_SYSTEM":"UTC","CENTER_NAME":"EARTH","BSTAR":"0.00000985240000","MEAN_MOTION_DDOT":"0.0000000000000","MEAN_ELEMENT_THEORY":"SGP4","REV_AT_EPOCH":"9151","RA_OF_ASC_NODE":"313.3340","ARG_OF_PERICENTER":"70.0349","REF_FRAME":"TEME","EPHEMERIS_TYPE":"0","NORAD_CAT_ID":"48312","INCLINATION":"53.0547","DECAY_DATE":null,"ELEMENT_SET_NO":"999","MEAN_MOTION":"15.06397031","ECCENTRICITY":"0.00016760","APOAPSIS":"548.383","GP_ID":"221304899","LAUNCH_DATE":"2021-04-29","OBJECT_NAME":"STARLINK-2061","MEAN_ANOMALY":"290.0820","OBJECT_ID":"2021-036AN","SEMIMAJOR_AXIS":"6925.358","SITE":"AFETR","TLE_LINE2":"2 48312  53.0547 313.3340 0001676  70.0349 290.0820 15.06397031 91516","MEAN_MOTION_DOT":"-0.00000135","CLASSIFICATION_TYPE":"U","OBJECT_TYPE":"PAYLOAD","PERIAPSIS":"546.062","FILE":"3720518","TLE_LINE1":"1 48312U 21036AN  22357.60159883 -.00000135  00000-0  98524-5 0  9992","EPOCH":"2022-12-23T14:26:18.138912","RCS_SIZE":"LARGE","COUNTRY_CODE":"US"},{"OBJECT_TYPE":"PAYLOAD","PERIAPSIS":"546.119","FILE":"3720518","TLE_LINE1":"1 48313U 21036AP  22357.86330259  .00002125  00000-0  16148-3 0  9999","COUNTRY_CODE":"US","EPOCH":"2022-12-23T20:43:09.343776","RCS_SIZE":"LARGE","TLE_LINE2":"2 48313  53.0527 312.1646 0001580  94.3764 265.7405 15.06399985 91546","MEAN_MOTION_DOT":"0.00002125","CLASSIFICATION_TYPE":"U","OBJECT_ID":"2021-036AP","SEMIMAJOR_AXIS":"6925.349","SITE":"AFETR","OBJECT_NAME":"STARLINK-2541","LAUNCH_DATE":"2021-04-29","MEAN_ANOMALY":"265.7405","MEAN_MOTION":"15.06399985","ELEMENT_SET_NO":"999","APOAPSIS":"548.308","ECCENTRICITY":"0.00015800","GP_ID":"221305149","NORAD_CAT_ID":"48313","EPHEMERIS_TYPE":"0","REF_FRAME":"TEME","INCLINATION":"53.0527","DECAY_DATE":null,"MEAN_ELEMENT_THEORY":"SGP4","MEAN_MOTION_DDOT":"0.0000000000000","REV_AT_EPOCH":"9154","RA_OF_ASC_NODE":"312.1646","ARG_OF_PERICENTER":"94.3764","PERIOD":"95.592","TIME_SYSTEM":"UTC","CENTER_NAME":"EARTH","BSTAR":"0.00016148000000"}];
